[{"OBJECT_NAME":"RASSVET-3 9","OBJECT_ID":"2026-061J","EPOCH":"2026-04-20T05:21:51.552576","MEAN_MOTION":15.91565255,"ECCENTRICITY":0.00196034,"INCLINATION":82.2971,"RA_OF_ASC_NODE":77.5134,"ARG_OF_PERICENTER":327.4404,"MEAN_ANOMALY":32.5658,"EPHEMERIS_TYPE":0,"CLASSIFICATION_TYPE":"U","NORAD_CAT_ID":68368,"ELEMENT_SET_NO":999,"REV_AT_EPOCH":437,"BSTAR":0.00027416763,"MEAN_MOTION_DOT":0.00090156,"MEAN_MOTION_DDOT":1.772689e-6},{"OBJECT_NAME":"RASSVET-3 10","OBJECT_ID":"2026-061K","EPOCH":"2026-04-20T05:29:23.081568","MEAN_MOTION":15.91790889,"ECCENTRICITY":0.00204245,"INCLINATION":82.2973,"RA_OF_ASC_NODE":77.5223,"ARG_OF_PERICENTER":327.584,"MEAN_ANOMALY":32.4176,"EPHEMERIS_TYPE":0,"CLASSIFICATION_TYPE":"U","NORAD_CAT_ID":68369,"ELEMENT_SET_NO":999,"REV_AT_EPOCH":437,"BSTAR":0.00027308469,"MEAN_MOTION_DOT":0.0009099,"MEAN_MOTION_DDOT":1.834246e-6},{"OBJECT_NAME":"RASSVET-3 11","OBJECT_ID":"2026-061L","EPOCH":"2026-04-20T05:28:29.528256","MEAN_MOTION":15.91808304,"ECCENTRICITY":0.00201769,"INCLINATION":82.2976,"RA_OF_ASC_NODE":77.5213,"ARG_OF_PERICENTER":327.3382,"MEAN_ANOMALY":32.6641,"EPHEMERIS_TYPE":0,"CLASSIFICATION_TYPE":"U","NORAD_CAT_ID":68370,"ELEMENT_SET_NO":999,"REV_AT_EPOCH":437,"BSTAR":0.0002686359,"MEAN_MOTION_DOT":0.00089552,"MEAN_MOTION_DDOT":1.741708e-6},{"OBJECT_NAME":"RASSVET-3 12","OBJECT_ID":"2026-061M","EPOCH":"2026-04-20T05:24:13.791168","MEAN_MOTION":15.92254546,"ECCENTRICITY":0.00198946,"INCLINATION":82.297,"RA_OF_ASC_NODE":77.5163,"ARG_OF_PERICENTER":327.2812,"MEAN_ANOMALY":32.7227,"EPHEMERIS_TYPE":0,"CLASSIFICATION_TYPE":"U","NORAD_CAT_ID":68371,"ELEMENT_SET_NO":999,"REV_AT_EPOCH":437,"BSTAR":0.00027762546,"MEAN_MOTION_DOT":0.00094648,"MEAN_MOTION_DDOT":2.093901e-6},{"OBJECT_NAME":"RASSVET-3 13","OBJECT_ID":"2026-061N","EPOCH":"2026-04-20T05:26:46.139424","MEAN_MOTION":15.90256434,"ECCENTRICITY":0.00190079,"INCLINATION":82.2968,"RA_OF_ASC_NODE":77.5179,"ARG_OF_PERICENTER":328.551,"MEAN_ANOMALY":31.4623,"EPHEMERIS_TYPE":0,"CLASSIFICATION_TYPE":"U","NORAD_CAT_ID":68372,"ELEMENT_SET_NO":999,"REV_AT_EPOCH":437,"BSTAR":0.00018448483,"MEAN_MOTION_DOT":0.000568,"MEAN_MOTION_DDOT":1.7079e-8},{"OBJECT_NAME":"RASSVET-3 14","OBJECT_ID":"2026-061P","EPOCH":"2026-04-20T03:52:40.802304","MEAN_MOTION":15.9022401,"ECCENTRICITY":0.0019325,"INCLINATION":82.2955,"RA_OF_ASC_NODE":77.5828,"ARG_OF_PERICENTER":332.0354,"MEAN_ANOMALY":27.9878,"EPHEMERIS_TYPE":0,"CLASSIFICATION_TYPE":"U","NORAD_CAT_ID":68373,"ELEMENT_SET_NO":999,"REV_AT_EPOCH":436,"BSTAR":0.0010742144,"MEAN_MOTION_DOT":0.00328535,"MEAN_MOTION_DDOT":3.8368535e-5},{"OBJECT_NAME":"RASSVET-3 15","OBJECT_ID":"2026-061Q","EPOCH":"2026-04-20T05:24:45.342720","MEAN_MOTION":15.90318996,"ECCENTRICITY":0.00184532,"INCLINATION":82.2971,"RA_OF_ASC_NODE":77.5163,"ARG_OF_PERICENTER":327.8521,"MEAN_ANOMALY":32.1625,"EPHEMERIS_TYPE":0,"CLASSIFICATION_TYPE":"U","NORAD_CAT_ID":68374,"ELEMENT_SET_NO":999,"REV_AT_EPOCH":437,"BSTAR":0.00025638884,"MEAN_MOTION_DOT":0.00078979,"MEAN_MOTION_DDOT":1.069516e-6},{"OBJECT_NAME":"RASSVET-3 16","OBJECT_ID":"2026-061R","EPOCH":"2026-04-20T05:08:38.657184","MEAN_MOTION":15.83172352,"ECCENTRICITY":0.00178992,"INCLINATION":82.2956,"RA_OF_ASC_NODE":77.6608,"ARG_OF_PERICENTER":337.681,"MEAN_ANOMALY":22.3677,"EPHEMERIS_TYPE":0,"CLASSIFICATION_TYPE":"U","NORAD_CAT_ID":68375,"ELEMENT_SET_NO":999,"REV_AT_EPOCH":436,"BSTAR":0.00023743279,"MEAN_MOTION_DOT":0.00051664,"MEAN_MOTION_DDOT":0},{"OBJECT_NAME":"SUPERVIEW NEO-2 OBJECT A","OBJECT_ID":"2026-062A","EPOCH":"2026-04-20T03:24:37.610208","MEAN_MOTION":15.19719041,"ECCENTRICITY":0.00016381,"INCLINATION":97.4407,"RA_OF_ASC_NODE":118.2769,"ARG_OF_PERICENTER":81.9117,"MEAN_ANOMALY":278.2304,"EPHEMERIS_TYPE":0,"CLASSIFICATION_TYPE":"U","NORAD_CAT_ID":68377,"ELEMENT_SET_NO":999,"REV_AT_EPOCH":383,"BSTAR":9.498245e-5,"MEAN_MOTION_DOT":1.961e-5,"MEAN_MOTION_DDOT":0},{"OBJECT_NAME":"SUPERVIEW NEO-2 OBJECT B","OBJECT_ID":"2026-062B","EPOCH":"2026-04-18T07:09:48.798144","MEAN_MOTION":15.1972553,"ECCENTRICITY":0.00017216,"INCLINATION":97.4403,"RA_OF_ASC_NODE":116.4568,"ARG_OF_PERICENTER":86.646,"MEAN_ANOMALY":273.4972,"EPHEMERIS_TYPE":0,"CLASSIFICATION_TYPE":"U","NORAD_CAT_ID":68378,"ELEMENT_SET_NO":999,"REV_AT_EPOCH":355,"BSTAR":8.7682515e-5,"MEAN_MOTION_DOT":1.805e-5,"MEAN_MOTION_DDOT":0},{"OBJECT_NAME":"STARLINK-36296","OBJECT_ID":"2026-063A","EPOCH":"2026-04-19T00:00:02.000160","MEAN_MOTION":15.75197508,"ECCENTRICITY":0.00012271,"INCLINATION":97.2859,"RA_OF_ASC_NODE":250.9333,"ARG_OF_PERICENTER":92.7806,"MEAN_ANOMALY":46.0139,"EPHEMERIS_TYPE":0,"CLASSIFICATION_TYPE":"U","NORAD_CAT_ID":68380,"ELEMENT_SET_NO":999,"REV_AT_EPOCH":213,"BSTAR":-0.00086934001,"MEAN_MOTION_DOT":-0.00127916,"MEAN_MOTION_DDOT":0},{"OBJECT_NAME":"STARLINK-37111","OBJECT_ID":"2026-063B","EPOCH":"2026-04-20T00:00:02.999808","MEAN_MOTION":15.75173247,"ECCENTRICITY":0.0001263,"INCLINATION":97.2866,"RA_OF_ASC_NODE":251.816,"ARG_OF_PERICENTER":79.0667,"MEAN_ANOMALY":306.5727,"EPHEMERIS_TYPE":0,"CLASSIFICATION_TYPE":"U","NORAD_CAT_ID":68381,"ELEMENT_SET_NO":999,"REV_AT_EPOCH":510,"BSTAR":0.00020536751,"MEAN_MOTION_DOT":0.00030589,"MEAN_MOTION_DDOT":0},{"OBJECT_NAME":"STARLINK-36946","OBJECT_ID":"2026-063C","EPOCH":"2026-04-17T22:54:32.406336","MEAN_MOTION":15.8086769,"ECCENTRICITY":0.00014348,"INCLINATION":97.285,"RA_OF_ASC_NODE":249.6875,"ARG_OF_PERICENTER":75.175,"MEAN_ANOMALY":284.9677,"EPHEMERIS_TYPE":0,"CLASSIFICATION_TYPE":"U","NORAD_CAT_ID":68382,"ELEMENT_SET_NO":999,"REV_AT_EPOCH":382,"BSTAR":0.00082248224,"MEAN_MOTION_DOT":0.00160717,"MEAN_MOTION_DDOT":0},{"OBJECT_NAME":"STARLINK-37121","OBJECT_ID":"2026-063D","EPOCH":"2026-04-18T00:00:04.000320","MEAN_MOTION":15.75252071,"ECCENTRICITY":0.00012635,"INCLINATION":97.2858,"RA_OF_ASC_NODE":249.7065,"ARG_OF_PERICENTER":84.1834,"MEAN_ANOMALY":103.8642,"EPHEMERIS_TYPE":0,"CLASSIFICATION_TYPE":"U","NORAD_CAT_ID":68383,"ELEMENT_SET_NO":999,"REV_AT_EPOCH":478,"BSTAR":-0.0011266034,"MEAN_MOTION_DOT":-0.00165403,"MEAN_MOTION_DDOT":0},{"OBJECT_NAME":"STARLINK-37137","OBJECT_ID":"2026-063E","EPOCH":"2026-04-17T22:09:47.942784","MEAN_MOTION":15.75220922,"ECCENTRICITY":0.00014596,"INCLINATION":97.2845,"RA_OF_ASC_NODE":249.5766,"ARG_OF_PERICENTER":82.933,"MEAN_ANOMALY":277.2101,"EPHEMERIS_TYPE":0,"CLASSIFICATION_TYPE":"U","NORAD_CAT_ID":68384,"ELEMENT_SET_NO":999,"REV_AT_EPOCH":381,"BSTAR":0.00072056825,"MEAN_MOTION_DOT":0.00108874,"MEAN_MOTION_DDOT":0}]
